NORAD_CAT_ID,OBJECT_NAME,OBJECT_TYPE,EPOCH,MEAN_MOTION,ECCENTRICITY,INCLINATION,RA_OF_ASC_NODE,ARG_OF_PERICENTER,MEAN_ANOMALY,BSTAR,MEAN_MOTION_DOT,MEAN_MOTION_DDOT,TLE_LINE0,TLE_LINE1,TLE_LINE2,SEMIMAJOR_AXIS,PERIOD,APOGEE,PERIGEE,DECAYED
56448.0,STARLINK-5990,PAYLOAD,2024-02-28 12:25:10,14.98331117,0.0003005,69.9997,210.764,274.0535,86.0281,-3.1471e-05,-4.68e-06,0.0,0 STARLINK-5990,1 56448U 23064A   24059.51748234 -.00000468  00000-0 -31471-4 0  9996,2 56448  69.9997 210.7640 0003005 274.0535  86.0281 14.98331117 44733,6950.189,96.107,574.143,569.966,0.0
56448.0,STARLINK-5990,PAYLOAD,2024-02-28 14:01:18,14.98337361,0.0002967,69.9997,210.5957,274.9577,85.1243,-0.00014068,-1.771e-05,0.0,0 STARLINK-5990,1 56448U 23064A   24059.58424097 -.00001771  00000-0 -14068-3 0  9991,2 56448  69.9997 210.5957 0002967 274.9577  85.1243 14.98337361 44389,6950.17,96.107,574.097,569.973,0.0
56448.0,STARLINK-5990,PAYLOAD,2024-02-28 20:25:50,14.98332601,0.0003063,69.9998,209.9226,274.2768,85.8041,1.0956e-05,3.8e-07,0.0,0 STARLINK-5990,1 56448U 23064A   24059.85127995  .00000038  00000-0  10956-4 0  9994,2 56448  69.9998 209.9226 0003063 274.2768  85.8041 14.98332601 44424,6950.185,96.107,574.179,569.921,0.0
56448.0,STARLINK-5990,PAYLOAD,2024-02-29 12:27:11,14.98330929,0.0003075,69.9998,208.2394,273.7129,86.3679,4.2952e-05,4.2e-06,0.0,0 STARLINK-5990,1 56448U 23064A   24060.51887940  .00000420  00000-0  42952-4 0  9998,2 56448  69.9998 208.2394 0003075 273.7129  86.3679 14.98330929 44884,6950.19,96.107,574.192,569.918,0.0
56448.0,STARLINK-5990,PAYLOAD,2024-02-29 14:03:19,14.98331073,0.0003073,69.9998,208.0711,273.7831,86.2977,4.382e-05,4.3e-06,0.0,0 STARLINK-5990,1 56448U 23064A   24060.58563918  .00000430  00000-0  43820-4 0  9997,2 56448  69.9998 208.0711 0003073 273.7831  86.2977 14.98331073 44536,6950.19,96.107,574.19,569.919,0.0
56448.0,STARLINK-5990,PAYLOAD,2024-02-29 20:27:51,14.9833275,0.0002886,70.0002,207.3989,266.9185,93.1644,5.3394e-05,5.44e-06,0.0,0 STARLINK-5990,1 56448U 23064A   24060.85267727  .00000544  00000-0  53394-4 0  9999,2 56448  70.0002 207.3989 0002886 266.9185  93.1644 14.98332750 44576,6950.184,96.107,574.055,570.044,0.0
56448.0,STARLINK-5990,PAYLOAD,2024-03-01 12:29:12,14.98329002,0.0003072,70.0003,205.7159,266.7152,93.3655,-1.3911e-05,-2.59e-06,0.0,0 STARLINK-5990,1 56448U 23064A   24061.52028050 -.00000259  00000-0 -13911-4 0  9994,2 56448  70.0003 205.7159 0003072 266.7152  93.3655 14.98329002 45030,6950.196,96.107,574.196,569.926,0.0
56448.0,STARLINK-5990,PAYLOAD,2024-03-01 14:05:20,14.98329353,0.000306,70.0003,205.5476,266.7488,93.3321,-9.1806e-06,-2.03e-06,0.0,0 STARLINK-5990,1 56448U 23064A   24061.58704014 -.00000203  00000-0 -91806-5 0  9990,2 56448  70.0003 205.5476 0003060 266.7488  93.3321 14.98329353 44688,6950.195,96.107,574.187,569.933,0.0
56448.0,STARLINK-5990,PAYLOAD,2024-03-01 18:53:44,14.98332138,0.0003056,70.0001,205.0423,267.8362,92.2447,1.0241e-05,2.9e-07,0.0,0 STARLINK-5990,1 56448U 23064A   24061.78731767  .00000029  00000-0  10241-4 0  9994,2 56448  70.0001 205.0423 0003056 267.8362  92.2447 14.98332138 44717,6950.186,96.107,574.175,569.927,0.0
56448.0,STARLINK-5990,PAYLOAD,2024-03-02 12:31:12,14.98332532,0.0003091,70.0002,203.1908,268.8816,91.1989,-1.4e-05,-2.6e-06,0.0,0 STARLINK-5990,1 56448U 23064A   24062.52167702 -.00000260  00000-0 -14000-4 0  9995,2 56448  70.0002 203.1908 0003091 268.8816  91.1989 14.98332532 45188,6950.185,96.107,574.198,569.902,0.0
56448.0,STARLINK-5990,PAYLOAD,2024-03-02 14:07:20,14.98332581,0.0003091,70.0002,203.0225,268.5172,91.5633,-1.3782e-05,-2.57e-06,0.0,0 STARLINK-5990,1 56448U 23064A   24062.58843686 -.00000257  00000-0 -13782-4 0  9995,2 56448  70.0002 203.0225 0003091 268.5172  91.5633 14.98332581 44836,6950.185,96.107,574.198,569.902,0.0
56448.0,STARLINK-5990,PAYLOAD,2024-03-02 18:55:44,14.98335174,0.0003084,70.0002,202.5177,268.4011,91.6795,5.5868e-06,-2.6e-07,0.0,0 STARLINK-5990,1 56448U 23064A   24062.78871416 -.00000026  00000-0  55868-5 0  9994,2 56448  70.0002 202.5177 0003084 268.4011  91.6795 14.98335174 44863,6950.177,96.107,574.185,569.898,0.0
56448.0,STARLINK-5990,PAYLOAD,2024-03-03 12:33:14,14.98326889,0.0003055,70.0002,200.6654,270.8559,89.225,1.0216e-05,2.9e-07,0.0,0 STARLINK-5990,1 56448U 23064A   24063.52307880  .00000029  00000-0  10216-4 0  9995,2 56448  70.0002 200.6654 0003055 270.8559  89.2250 14.98326889 44978,6950.203,96.107,574.191,569.944,0.0
56448.0,STARLINK-5990,PAYLOAD,2024-03-03 18:57:45,14.98331018,0.0002989,70.0003,199.9916,268.9199,91.1618,2.7904e-05,2.4e-06,0.0,0 STARLINK-5990,1 56448U 23064A   24063.79011570  .00000240  00000-0  27904-4 0  9999,2 56448  70.0003 199.9916 0002989 268.9199  91.1618 14.98331018 45019,6950.19,96.107,574.132,569.977,0.0
56448.0,STARLINK-5990,PAYLOAD,2024-03-04 10:59:05,14.98339677,0.0003037,70.0003,198.309,272.9836,87.0975,8.5086e-05,9.23e-06,0.0,0 STARLINK-5990,1 56448U 23064A   24064.45770640  .00000923  00000-0  85086-4 0  9996,2 56448  70.0003 198.3090 0003037 272.9836  87.0975 14.98339677 45472,6950.163,96.106,574.139,569.917,0.0
56448.0,STARLINK-5990,PAYLOAD,2024-03-04 14:11:21,14.98340014,0.0003032,70.0004,197.9724,273.0472,87.034,8.6893e-05,9.44e-06,0.0,0 STARLINK-5990,1 56448U 23064A   24064.59122528  .00000944  00000-0  86893-4 0  9997,2 56448  70.0004 197.9724 0003032 273.0472  87.0340 14.98340014 45131,6950.162,96.106,574.134,569.92,0.0
56448.0,STARLINK-5990,PAYLOAD,2024-03-04 18:59:45,14.98344946,0.0003012,70.0006,197.4675,273.2112,86.8703,0.00013726,1.546e-05,0.0,0 STARLINK-5990,1 56448U 23064A   24064.79149929  .00001546  00000-0  13726-3 0  9996,2 56448  70.0006 197.4675 0003012 273.2112  86.8703 14.98344946 45165,6950.147,96.106,574.105,569.918,0.0
56448.0,STARLINK-5990,PAYLOAD,2024-03-05 14:13:24,14.98316889,0.0002944,70.0004,195.4478,272.385,87.6972,-0.00011264,-1.436e-05,0.0,0 STARLINK-5990,1 56448U 23064A   24065.59264586 -.00001436  00000-0 -11264-3 0  9997,2 56448  70.0004 195.4478 0002944 272.3850  87.6972 14.98316889 45289,6950.233,96.108,574.145,570.052,0.0
56448.0,STARLINK-5990,PAYLOAD,2024-03-05 19:01:48,14.98317177,0.0002974,70.0006,194.9436,270.539,89.5428,-0.00011998,-1.524e-05,0.0,0 STARLINK-5990,1 56448U 23064A   24065.79292721 -.00001524  00000-0 -11998-3 0  9993,2 56448  70.0006 194.9436 0002974 270.5390  89.5428 14.98317177 45672,6950.233,96.108,574.165,570.031,0.0
56448.0,STARLINK-5990,PAYLOAD,2024-03-06 11:03:08,14.98335035,0.0003375,69.9997,193.2593,274.7987,85.2787,-0.00010256,-1.317e-05,0.0,0 STARLINK-5990,1 56448U 23064A   24066.46051703 -.00001317  00000-0 -10256-3 0  9997,2 56448  69.9997 193.2593 0003375 274.7987  85.2787 14.98335035 45773,6950.177,96.107,574.388,569.697,0.0
56448.0,STARLINK-5990,PAYLOAD,2024-03-06 14:15:24,14.98335855,0.0002721,70.0,192.9227,260.2712,99.814,-7.7316e-05,-1.015e-05,0.0,0 STARLINK-5990,1 56448U 23064A   24066.59403543 -.00001015  00000-0 -77316-4 0  9990,2 56448  70.0000 192.9227 0002721 260.2712  99.8140 14.98335855 45438,6950.175,96.107,573.931,570.149,0.0
56448.0,STARLINK-5990,PAYLOAD,2024-03-06 17:27:40,14.98342883,0.000318,69.9999,192.5862,274.2998,85.7798,8.6059e-06,1e-07,0.0,0 STARLINK-5990,1 56448U 23064A   24066.72754818  .00000010  00000-0  86059-5 0  9996,2 56448  69.9999 192.5862 0003180 274.2998  85.7798 14.98342883 45818,6950.153,96.106,574.228,569.808,0.0
56448.0,STARLINK-5990,PAYLOAD,2024-03-07 14:17:27,14.9830846,0.0003058,70.0,190.3981,268.8136,91.2672,1.1703e-05,4.7e-07,0.0,0 STARLINK-5990,1 56448U 23064A   24067.59545319  .00000047  00000-0  11703-4 0  9999,2 56448  70.0000 190.3981 0003058 268.8136  91.2672 14.98308460 45589,6950.26,96.108,574.25,569.999,0.0
56448.0,STARLINK-5990,PAYLOAD,2024-03-08 11:07:11,14.98334206,0.0003122,69.9999,188.2099,268.6346,91.4455,-3.3601e-06,-1.33e-06,0.0,0 STARLINK-5990,1 56448U 23064A   24068.46332256 -.00000133  00000-0 -33601-5 0  9990,2 56448  69.9999 188.2099 0003122 268.6346  91.4455 14.98334206 46075,6950.18,96.107,574.215,569.875,0.0
56448.0,STARLINK-5990,PAYLOAD,2024-03-08 14:19:26,14.98337257,0.0003097,70.0,187.8733,268.9493,91.1311,4.1405e-05,4.01e-06,0.0,0 STARLINK-5990,1 56448U 23064A   24068.59683914  .00000401  00000-0  41405-4 0  9990,2 56448  70.0000 187.8733 0003097 268.9493  91.1311 14.98337257 45737,6950.17,96.107,574.188,569.883,0.0
56448.0,STARLINK-5990,PAYLOAD,2024-03-09 01:32:22,14.98342164,0.0003274,69.9996,186.6947,276.9284,83.1503,1.5723e-05,9.5e-07,0.0,0 STARLINK-5990,1 56448U 23064A   24069.06415484  .00000095  00000-0  15723-4 0  9991,2 56448  69.9996 186.6947 0003274 276.9284  83.1503 14.98342164 46161,6950.155,96.106,574.296,569.745,0.0
56448.0,STARLINK-5990,PAYLOAD,2024-03-09 11:09:11,14.98329029,0.0003179,69.9997,185.6848,268.0014,92.0781,0.00023479,2.709e-05,0.0,0 STARLINK-5990,1 56448U 23064A   24069.46471724  .00002709  00000-0  23479-3 0  9994,2 56448  69.9997 185.6848 0003179 268.0014  92.0781 14.98329029 46227,6950.196,96.107,574.27,569.851,0.0
56448.0,STARLINK-5990,PAYLOAD,2024-03-09 14:21:27,14.98332587,0.0003131,69.9998,185.349,271.1367,88.9433,0.00024595,2.843e-05,0.0,0 STARLINK-5990,1 56448U 23064A   24069.59823478  .00002843  00000-0  24595-3 0  9994,2 56448  69.9998 185.3490 0003131 271.1367  88.9433 14.98332587 45884,6950.185,96.107,574.226,569.874,0.0
56448.0,STARLINK-5990,PAYLOAD,2024-03-10 11:11:12,14.98332663,0.000286,70.0004,183.1611,271.248,88.8351,-5.8219e-05,-7.88e-06,0.0,0 STARLINK-5990,1 56448U 23064A   24070.46612223 -.00000788  00000-0 -58219-4 0  9995,2 56448  70.0004 183.1611 0002860 271.2480  88.8351 14.98332663 46379,6950.185,96.107,574.037,570.062,0.0
56448.0,STARLINK-5990,PAYLOAD,2024-03-10 14:23:28,14.98334004,0.0002968,69.9998,182.8239,270.0776,90.0043,-4.6133e-05,-6.43e-06,0.0,0 STARLINK-5990,1 56448U 23064A   24070.59964040 -.00000643  00000-0 -46133-4 0  9998,2 56448  69.9998 182.8239 0002968 270.0776  90.0043 14.98334004 46031,6950.181,96.107,574.108,569.983,0.0
